[{"OBJECT_NAME":"ONEWEB-0495","OBJECT_ID":"2022-138C","EPOCH":"2026-01-07T20:39:54.518688","MEAN_MOTION":13.19725832,"ECCENTRICITY":0.0001748,"INCLINATION":87.9223,"RA_OF_ASC_NODE":336.8758,"ARG_OF_PERICENTER":58.7874,"MEAN_ANOMALY":301.343,"EPHEMERIS_TYPE":0,"CLASSIFICATION_TYPE":"U","NORAD_CAT_ID":54115,"ELEMENT_SET_NO":999,"REV_AT_EPOCH":15567,"BSTAR":0.00036702,"MEAN_MOTION_DOT":1.6e-6,"MEAN_MOTION_DDOT":0},{"OBJECT_NAME":"ONEWEB-0497","OBJECT_ID":"2022-138D","EPOCH":"2026-01-07T15:30:34.583904","MEAN_MOTION":13.19725628,"ECCENTRICITY":0.0001711,"INCLINATION":87.923,"RA_OF_ASC_NODE":336.9066,"ARG_OF_PERICENTER":78.9263,"MEAN_ANOMALY":281.2062,"EPHEMERIS_TYPE":0,"CLASSIFICATION_TYPE":"U","NORAD_CAT_ID":54116,"ELEMENT_SET_NO":999,"REV_AT_EPOCH":15563,"BSTAR":9.1275e-5,"MEAN_MOTION_DOT":4.9e-7,"MEAN_MOTION_DDOT":0},{"OBJECT_NAME":"ONEWEB-0499","OBJECT_ID":"2022-138E","EPOCH":"2026-01-07T20:34:11.504640","MEAN_MOTION":13.19725037,"ECCENTRICITY":0.0001934,"INCLINATION":87.9221,"RA_OF_ASC_NODE":336.8767,"ARG_OF_PERICENTER":77.287,"MEAN_ANOMALY":282.8479,"EPHEMERIS_TYPE":0,"CLASSIFICATION_TYPE":"U","NORAD_CAT_ID":54117,"ELEMENT_SET_NO":999,"REV_AT_EPOCH":15567,"BSTAR":-0.000566,"MEAN_MOTION_DOT":-2.14e-6,"MEAN_MOTION_DDOT":0},{"OBJECT_NAME":"ONEWEB-0500","OBJECT_ID":"2022-138F","EPOCH":"2026-01-07T20:37:38.451648","MEAN_MOTION":13.19726041,"ECCENTRICITY":0.0001706,"INCLINATION":87.9227,"RA_OF_ASC_NODE":336.8642,"ARG_OF_PERICENTER":83.8279,"MEAN_ANOMALY":276.3048,"EPHEMERIS_TYPE":0,"CLASSIFICATION_TYPE":"U","NORAD_CAT_ID":54118,"ELEMENT_SET_NO":999,"REV_AT_EPOCH":15568,"BSTAR":0.00038133,"MEAN_MOTION_DOT":1.66e-6,"MEAN_MOTION_DDOT":0},{"OBJECT_NAME":"ONEWEB-0501","OBJECT_ID":"2022-138G","EPOCH":"2026-01-07T15:53:19.735872","MEAN_MOTION":13.19726614,"ECCENTRICITY":0.0001749,"INCLINATION":87.923,"RA_OF_ASC_NODE":336.9041,"ARG_OF_PERICENTER":70.374,"MEAN_ANOMALY":289.7581,"EPHEMERIS_TYPE":0,"CLASSIFICATION_TYPE":"U","NORAD_CAT_ID":54119,"ELEMENT_SET_NO":999,"REV_AT_EPOCH":15563,"BSTAR":0.00015282,"MEAN_MOTION_DOT":7.4e-7,"MEAN_MOTION_DDOT":0},{"OBJECT_NAME":"ONEWEB-0502","OBJECT_ID":"2022-138H","EPOCH":"2026-01-07T10:05:19.048704","MEAN_MOTION":13.19725054,"ECCENTRICITY":0.0001875,"INCLINATION":87.9231,"RA_OF_ASC_NODE":336.9332,"ARG_OF_PERICENTER":73.6112,"MEAN_ANOMALY":286.5227,"EPHEMERIS_TYPE":0,"CLASSIFICATION_TYPE":"U","NORAD_CAT_ID":54120,"ELEMENT_SET_NO":999,"REV_AT_EPOCH":15562,"BSTAR":0.0001739,"MEAN_MOTION_DOT":8.3e-7,"MEAN_MOTION_DDOT":0},{"OBJECT_NAME":"ONEWEB-0503","OBJECT_ID":"2022-138J","EPOCH":"2026-01-07T20:44:27.489120","MEAN_MOTION":13.1972477,"ECCENTRICITY":0.0002068,"INCLINATION":87.9228,"RA_OF_ASC_NODE":336.849,"ARG_OF_PERICENTER":82.5664,"MEAN_ANOMALY":277.5704,"EPHEMERIS_TYPE":0,"CLASSIFICATION_TYPE":"U","NORAD_CAT_ID":54121,"ELEMENT_SET_NO":999,"REV_AT_EPOCH":15567,"BSTAR":0.00029593,"MEAN_MOTION_DOT":1.31e-6,"MEAN_MOTION_DDOT":0},{"OBJECT_NAME":"ONEWEB-0504","OBJECT_ID":"2022-138K","EPOCH":"2026-01-07T20:26:15.960768","MEAN_MOTION":13.19726206,"ECCENTRICITY":0.0001926,"INCLINATION":87.9224,"RA_OF_ASC_NODE":336.8663,"ARG_OF_PERICENTER":74.2325,"MEAN_ANOMALY":285.902,"EPHEMERIS_TYPE":0,"CLASSIFICATION_TYPE":"U","NORAD_CAT_ID":54122,"ELEMENT_SET_NO":999,"REV_AT_EPOCH":15568,"BSTAR":0.00029856,"MEAN_MOTION_DOT":1.32e-6,"MEAN_MOTION_DDOT":0},{"OBJECT_NAME":"ONEWEB-0505","OBJECT_ID":"2022-138L","EPOCH":"2026-01-07T20:21:42.592896","MEAN_MOTION":13.19724996,"ECCENTRICITY":0.000188,"INCLINATION":87.9231,"RA_OF_ASC_NODE":336.8585,"ARG_OF_PERICENTER":65.4268,"MEAN_ANOMALY":294.706,"EPHEMERIS_TYPE":0,"CLASSIFICATION_TYPE":"U","NORAD_CAT_ID":54123,"ELEMENT_SET_NO":999,"REV_AT_EPOCH":15566,"BSTAR":0.00040108,"MEAN_MOTION_DOT":1.74e-6,"MEAN_MOTION_DDOT":0},{"OBJECT_NAME":"ONEWEB-0506","OBJECT_ID":"2022-138M","EPOCH":"2026-01-07T19:45:19.359936","MEAN_MOTION":13.19725701,"ECCENTRICITY":0.0001787,"INCLINATION":87.9232,"RA_OF_ASC_NODE":336.8605,"ARG_OF_PERICENTER":76.0937,"MEAN_ANOMALY":284.0394,"EPHEMERIS_TYPE":0,"CLASSIFICATION_TYPE":"U","NORAD_CAT_ID":54124,"ELEMENT_SET_NO":999,"REV_AT_EPOCH":15565,"BSTAR":0.00012951,"MEAN_MOTION_DOT":6.5e-7,"MEAN_MOTION_DDOT":0},{"OBJECT_NAME":"ONEWEB-0507","OBJECT_ID":"2022-138N","EPOCH":"2026-01-07T20:14:53.450880","MEAN_MOTION":13.1972692,"ECCENTRICITY":0.000169,"INCLINATION":87.9215,"RA_OF_ASC_NODE":336.887,"ARG_OF_PERICENTER":74.8383,"MEAN_ANOMALY":285.2936,"EPHEMERIS_TYPE":0,"CLASSIFICATION_TYPE":"U","NORAD_CAT_ID":54125,"ELEMENT_SET_NO":999,"REV_AT_EPOCH":15570,"BSTAR":0.00020278,"MEAN_MOTION_DOT":9.4e-7,"MEAN_MOTION_DDOT":0},{"OBJECT_NAME":"ONEWEB-0508","OBJECT_ID":"2022-138P","EPOCH":"2026-01-07T20:10:19.785792","MEAN_MOTION":13.1972564,"ECCENTRICITY":0.0001631,"INCLINATION":87.9223,"RA_OF_ASC_NODE":336.8834,"ARG_OF_PERICENTER":70.8236,"MEAN_ANOMALY":289.3073,"EPHEMERIS_TYPE":0,"CLASSIFICATION_TYPE":"U","NORAD_CAT_ID":54126,"ELEMENT_SET_NO":999,"REV_AT_EPOCH":15568,"BSTAR":0.00034409,"MEAN_MOTION_DOT":1.51e-6,"MEAN_MOTION_DDOT":0},{"OBJECT_NAME":"ONEWEB-0509","OBJECT_ID":"2022-138Q","EPOCH":"2026-01-07T15:55:35.732064","MEAN_MOTION":13.19726139,"ECCENTRICITY":0.0001742,"INCLINATION":87.9232,"RA_OF_ASC_NODE":336.892,"ARG_OF_PERICENTER":76.8992,"MEAN_ANOMALY":283.2335,"EPHEMERIS_TYPE":0,"CLASSIFICATION_TYPE":"U","NORAD_CAT_ID":54127,"ELEMENT_SET_NO":999,"REV_AT_EPOCH":15563,"BSTAR":-1.3464e-5,"MEAN_MOTION_DOT":8.0e-8,"MEAN_MOTION_DDOT":0},{"OBJECT_NAME":"ONEWEB-0510","OBJECT_ID":"2022-138R","EPOCH":"2026-01-07T19:55:22.958112","MEAN_MOTION":13.20772767,"ECCENTRICITY":0.0001885,"INCLINATION":87.9226,"RA_OF_ASC_NODE":306.4222,"ARG_OF_PERICENTER":93.5115,"MEAN_ANOMALY":266.6234,"EPHEMERIS_TYPE":0,"CLASSIFICATION_TYPE":"U","NORAD_CAT_ID":54128,"ELEMENT_SET_NO":999,"REV_AT_EPOCH":15811,"BSTAR":1.2979e-5,"MEAN_MOTION_DOT":1.8e-7,"MEAN_MOTION_DDOT":0},{"OBJECT_NAME":"ONEWEB-0511","OBJECT_ID":"2022-138S","EPOCH":"2026-01-07T10:23:31.301952","MEAN_MOTION":13.19725677,"ECCENTRICITY":0.0002042,"INCLINATION":87.9233,"RA_OF_ASC_NODE":336.9415,"ARG_OF_PERICENTER":80.833,"MEAN_ANOMALY":279.3033,"EPHEMERIS_TYPE":0,"CLASSIFICATION_TYPE":"U","NORAD_CAT_ID":54129,"ELEMENT_SET_NO":999,"REV_AT_EPOCH":15563,"BSTAR":-3.0278e-5,"MEAN_MOTION_DOT":1.0e-8,"MEAN_MOTION_DDOT":0},{"OBJECT_NAME":"ONEWEB-0512","OBJECT_ID":"2022-138T","EPOCH":"2026-01-07T15:39:40.008960","MEAN_MOTION":13.19724386,"ECCENTRICITY":0.0001897,"INCLINATION":87.9222,"RA_OF_ASC_NODE":336.9189,"ARG_OF_PERICENTER":70.8015,"MEAN_ANOMALY":289.3323,"EPHEMERIS_TYPE":0,"CLASSIFICATION_TYPE":"U","NORAD_CAT_ID":54130,"ELEMENT_SET_NO":999,"REV_AT_EPOCH":15563,"BSTAR":0.00013186,"MEAN_MOTION_DOT":6.6e-7,"MEAN_MOTION_DDOT":0},{"OBJECT_NAME":"ONEWEB-0513","OBJECT_ID":"2022-138U","EPOCH":"2026-01-07T10:05:26.512800","MEAN_MOTION":13.20261127,"ECCENTRICITY":0.0002364,"INCLINATION":87.9235,"RA_OF_ASC_NODE":336.9243,"ARG_OF_PERICENTER":63.7905,"MEAN_ANOMALY":296.347,"EPHEMERIS_TYPE":0,"CLASSIFICATION_TYPE":"U","NORAD_CAT_ID":54131,"ELEMENT_SET_NO":999,"REV_AT_EPOCH":15550,"BSTAR":0.00022054,"MEAN_MOTION_DOT":1.02e-6,"MEAN_MOTION_DDOT":0}]
