ONEWEB-0495             
1 54115U 22138C   26007.86104767  .00000160  00000+0  36702-3 0  9993
2 54115  87.9223 336.8758 0001748  58.7874 301.3430 13.19725832155677
ONEWEB-0497             
1 54116U 22138D   26007.64623361  .00000049  00000+0  91275-4 0  9999
2 54116  87.9230 336.9066 0001711  78.9263 281.2062 13.19725628155631
ONEWEB-0499             
1 54117U 22138E   26007.85707760 -.00000214  00000+0 -56600-3 0  9997
2 54117  87.9221 336.8767 0001934  77.2870 282.8479 13.19725037155679
ONEWEB-0500             
1 54118U 22138F   26007.85947282  .00000166  00000+0  38133-3 0  9998
2 54118  87.9227 336.8642 0001706  83.8279 276.3048 13.19726041155688
ONEWEB-0501             
1 54119U 22138G   26007.66203398  .00000074  00000+0  15282-3 0  9999
2 54119  87.9230 336.9041 0001749  70.3740 289.7581 13.19726614155639
ONEWEB-0502             
1 54120U 22138H   26007.42035936  .00000083  00000+0  17390-3 0  9998
2 54120  87.9231 336.9332 0001875  73.6112 286.5227 13.19725054155622
ONEWEB-0503             
1 54121U 22138J   26007.86420705  .00000131  00000+0  29593-3 0  9991
2 54121  87.9228 336.8490 0002068  82.5664 277.5704 13.19724770155678
ONEWEB-0504             
1 54122U 22138K   26007.85157362  .00000132  00000+0  29856-3 0  9990
2 54122  87.9224 336.8663 0001926  74.2325 285.9020 13.19726206155682
ONEWEB-0505             
1 54123U 22138L   26007.84840964  .00000174  00000+0  40108-3 0  9996
2 54123  87.9231 336.8585 0001880  65.4268 294.7060 13.19724996155665
ONEWEB-0506             
1 54124U 22138M   26007.82314074  .00000065  00000+0  12951-3 0  9997
2 54124  87.9232 336.8605 0001787  76.0937 284.0394 13.19725701155653
ONEWEB-0507             
1 54125U 22138N   26007.84367420  .00000094  00000+0  20278-3 0  9996
2 54125  87.9215 336.8870 0001690  74.8383 285.2936 13.19726920155708
ONEWEB-0508             
1 54126U 22138P   26007.84050678  .00000151  00000+0  34409-3 0  9996
2 54126  87.9223 336.8834 0001631  70.8236 289.3073 13.19725640155688
ONEWEB-0509             
1 54127U 22138Q   26007.66360801  .00000008  00000+0 -13464-4 0  9990
2 54127  87.9232 336.8920 0001742  76.8992 283.2335 13.19726139155636
ONEWEB-0510             
1 54128U 22138R   26007.83012683  .00000018  00000+0  12979-4 0  9992
2 54128  87.9226 306.4222 0001885  93.5115 266.6234 13.20772767158118
ONEWEB-0511             
1 54129U 22138S   26007.43300118  .00000001  00000+0 -30278-4 0  9997
2 54129  87.9233 336.9415 0002042  80.8330 279.3033 13.19725677155631
ONEWEB-0512             
1 54130U 22138T   26007.65254640  .00000066  00000+0  13186-3 0  9999
2 54130  87.9222 336.9189 0001897  70.8015 289.3323 13.19724386155634
ONEWEB-0513             
1 54131U 22138U   26007.42044575  .00000102  00000+0  22054-3 0  9994
2 54131  87.9235 336.9243 0002364  63.7905 296.3470 13.20261127155507
